RESOURCESAT-2A          
1 41877U 16074A   22247.35181581  .00000031  00000+0  33900-4 0  9996
2 41877  98.7139 321.6274 0002499  98.3507 261.7971 14.21624434297975
CARTOSAT-2D             
1 41948U 17008A   22247.46482552  .00002198  00000+0  10746-3 0  9995
2 41948  97.4581 306.1745 0007545  56.4795 303.7181 15.19259315307795
SENTINEL-2B             
1 42063U 17013A   22247.38934711  .00000055  00000+0  37546-4 0  9998
2 42063  98.5658 321.0130 0001157  77.6864 282.4465 14.30815741287057
ZHUHAI-1 02 (CAS-4B)    
1 42759U 17034B   22247.45170260  .00001575  00000+0  10204-3 0  9991
2 42759  43.0165 257.1093 0008540  59.6440  56.4118 15.12342432288314
NUSAT-3 (MILANESAT)     
1 42760U 17034C   22247.43091660  .00002106  00000+0  12929-3 0  9994
2 42760  43.0149 251.5471 0008228  86.9149  61.7717 15.13142082288389
ZHUHAI-1 01 (CAS-4A)    
1 42761U 17034D   22247.48544955  .00001900  00000+0  12016-3 0  9998
2 42761  43.0167 255.6546 0008692  62.8941  66.8094 15.12429148288324
CARTOSAT-2E             
1 42767U 17036C   22247.43478874  .00002160  00000+0  10560-3 0  9998
2 42767  97.4473 306.8822 0008889 102.2362 353.5622 15.19265560288352
FORMOSAT-5              
1 42920U 17049A   22247.39738404  .00000049  00000+0  23615-4 0  9996
2 42920  98.2352 323.3354 0010843  16.2684 343.8863 14.50868650266310
SENTINEL-5P             
1 42969U 17064A   22247.41520340  .00000006  00000+0  23748-4 0  9997
2 42969  98.7344 186.0897 0001076  79.3896 280.7401 14.19547916253528
SKYSAT-C11              
1 42987U 17068A   22247.33186367  .00008284  00000+0  22176-3 0  9998
2 42987  97.2976   5.7442 0003074 118.0485 242.1072 15.38277605270512
SKYSAT-C10              
1 42988U 17068B   22247.29893310  .00008152  00000+0  21800-3 0  9994
2 42988  97.3025   6.0049 0003013  89.6307 270.5284 15.38317181270531
SKYSAT-C9               
1 42989U 17068C   22247.28828773  .00008037  00000+0  21549-3 0  9997
2 42989  97.2960   5.0793 0001839  95.2672 264.8783 15.38241605270724
SKYSAT-C8               
1 42990U 17068D   22247.34499206  .00008234  00000+0  22103-3 0  9997
2 42990  97.3036   6.4762 0005440  87.1733 273.0134 15.38187833270568
SKYSAT-C7               
1 42991U 17068E   22247.32317921  .00008378  00000+0  22412-3 0  9991
2 42991  97.3040   6.5330 0003745 114.0973 246.0664 15.38293795270561
SKYSAT-C6               
1 42992U 17068F   22247.57376173  .00010498  00000+0  28020-3 0  9990
2 42992  97.3061   7.1862 0003078 107.9304 252.2277 15.38298449270616
CARTOSAT-2F             
1 43111U 18004A   22247.47045057  .00004271  00000+0  20561-3 0  9992
2 43111  97.4414 306.7692 0005136 113.3657   1.3089 15.19284975257540
NUSAT-4 (ADA)           
1 43195U 18015D   22247.45341977  .00008162  00000+0  26671-3 0  9995
2 43195  97.5450  29.8042 0015370 125.7478 319.0974 15.31895101255323
NUSAT-5 (MARYAM)        
1 43204U 18015K   22247.48651479  .00008397  00000+0  27082-3 0  9997
2 43204  97.5459  30.4716 0014863 126.8232 277.6276 15.32311735254965
GAOFEN 1-02             
1 43259U 18031A   22247.53506873  .00000346  00000+0  56817-4 0  9993
2 43259  97.8956 322.4030 0004600 105.6839 254.4892 14.76508019238812
GAOFEN 1-03             
1 43260U 18031B   22247.51288228  .00000310  00000+0  51661-4 0  9997
2 43260  97.8953 322.3452 0005935 169.1101 191.0245 14.76535647238801
GAOFEN 1-04             
1 43262U 18031D   22247.55595255 -.00002332  00000+0 -32766-3 0  9996
2 43262  97.8954 322.4298 0005728 128.1580 232.0170 14.76511581238803
SENTINEL-3B             
1 43437U 18039A   22247.20999735  .00000022  00000+0  27121-4 0  9993
2 43437  98.6227 313.3983 0001213  75.9770 284.1545 14.26738183227068
GAOFEN 5-01             
1 43461U 18043A   22247.41258143  .00000167  00000+0  46472-4 0  9999
2 43461  98.2731 187.5046 0003016  63.8644 296.2865 14.58019631230160
GAOFEN 6                
1 43484U 18048A   22247.31780364  .00000254  00000+0  43728-4 0  9991
2 43484  97.9262 326.1994 0007982 317.9594  42.1024 14.76515465229479
GAOFEN 11-1             
1 43585U 18063A   22247.43700052  .00002878  00000+0  12314-3 0  9999
2 43585  97.3144 321.6043 0013154 253.7390 235.0179 15.23545438228411
AEOLUS                  
1 43600U 18066A   22247.51506232  .00099477  00000+0  38785-3 0  9994
2 43600  96.7037 252.0379 0005219 123.2394 236.9380 15.86793588233667
ICESAT-2                
1 43613U 18070A   22247.55115880  .00001920  00000+0  69569-4 0  9993
2 43613  92.0002 279.5178 0006045  63.3380 296.8487 15.28272077221458
HYSIS                   
1 43719U 18096A   22247.33842225  .00000428  00000+0  65395-4 0  9999
2 43719  97.9522 312.5061 0000913 336.8356  23.2817 14.78683206203211
KAZSTSAT                
1 43783U 18099AB  22247.13201368  .00000655  00000+0  66536-4 0  9998
2 43783  97.6236 310.2135 0008178  17.9840 342.1668 14.94059863204553
SAUDISAT 5A             
1 43831U 18102A   22247.31367701  .00000535  00000+0  37307-4 0  9992
2 43831  97.4902 318.6947 0012477 268.3926 178.7728 15.09420003206076
SAUDISAT 5B             
1 43833U 18102C   22247.31409294  .00000547  00000+0  37649-4 0  9990
2 43833  97.4928 319.7042 0013457 274.7584 173.6631 15.09866862206124
GAOFEN 10R              
1 44622U 19066A   22247.34386750  .00000494  00000+0  70644-4 0  9994
2 44622  97.8946 185.4129 0002953 103.0368 257.1188 14.80887064157688
CARTOSAT-3              
1 44804U 19081A   22247.48246464 -.00025403  00000+0 -12067-2 0  9997
2 44804  97.3912 307.4203 0011995 304.0271 181.1807 15.19196944153637
GAOFEN 12-1             
1 44819U 19082A   22247.55823382  .00000145  00000+0  25770-4 0  9993
2 44819  97.8595 266.3144 0001332  77.6700 282.4673 14.80267952149643
CSG-1                   
1 44873U 19092A   22247.31322188  .00000126  00000+0  22377-4 0  9995
2 44873  97.8900  69.8451 0001313  85.5582 274.5777 14.82153259146780
NUSAT-7 (SOPHIE)        
1 45017U 20003B   22247.48561478  .00007992  00000+0  22735-3 0  9990
2 45017  97.2080 307.6940 0013291  78.9156  46.0458 15.36310246147354
NUSAT-8 (MARIE)         
1 45018U 20003C   22247.46727661  .00010060  00000+0  25840-3 0  9997
2 45018  97.2219 309.8579 0011777  79.3745  45.9917 15.39422299147417
NUSAT-6 (HYPATIA)       
1 46272U 20061A   22247.61304578  .00004642  00000+0  18460-3 0  9998
2 46272  97.3233 316.9222 0007667 142.3780 217.7996 15.25744443111290
NEMO-HD                 
1 46277U 20061F   22247.45516472  .00001687  00000+0  86608-4 0  9999
2 46277  97.3852 316.2096 0000284 152.4834 337.8506 15.17843371110846
NUSAT-12 (DOROTHY)      
1 46827U 20079A   22247.45832736  .00009855  00000+0  25556-3 0  9992
2 46827  97.1914 316.0119 0008016  26.9668  96.3748 15.39173327102251
NUSAT-9 (ALICE)         
1 46828U 20079B   22247.50101603  .00010451  00000+0  26681-3 0  9995
2 46828  97.1793 315.6300 0004146  74.9212  52.7373 15.39657984102304
NUSAT-11 (CORA)         
1 46829U 20079C   22247.49999243  .00010220  00000+0  26005-3 0  9993
2 46829  97.1849 315.9861 0006735  43.9673  83.8124 15.39752815102291
NUSAT-15 (KATHERINE)    
1 46830U 20079D   22247.49263880  .00010120  00000+0  25862-3 0  9995
2 46830  97.1994 317.2768 0003530  25.4897  99.4341 15.39641414102306
NUSAT-14 (HEDY)         
1 46831U 20079E   22247.47904250  .00010942  00000+0  27107-3 0  9993
2 46831  97.1958 317.1268 0007518  27.2830  30.6360 15.40547112102319
NUSAT-10 (CAROLINE)     
1 46832U 20079F   22247.46048916  .00009385  00000+0  24184-3 0  9992
2 46832  97.1959 316.7610 0007615  39.6189  84.7708 15.39383952102289
NUSAT-13 (EMMY)         
1 46833U 20079G   22247.46325838  .00009154  00000+0  23763-3 0  9990
2 46833  97.1955 316.7324 0007768  40.6767  79.5152 15.39164043102284
NUSAT-17 (MARY)         
1 46835U 20079J   22247.45304398  .00009421  00000+0  24606-3 0  9993
2 46835  97.1953 316.4648 0008202  52.5707 137.2872 15.38964999102266
NUSAT-18 (VERA)         
1 46836U 20079K   22247.46539157  .00009865  00000+0  25309-3 0  9991
2 46836  97.1966 316.9350 0009139  57.9956  68.9479 15.39491859102298
NUSAT-16 (LISE)         
1 46840U 20079P   22247.49566576  .00010238  00000+0  26268-3 0  9995
2 46840  97.2010 317.0945 0006188  55.8981  68.8063 15.39502990102299
SENTINEL-6              
1 46984U 20086A   22247.06337215 -.00000061  00000+0  00000+0 0  9997
2 46984  66.0429 125.7508 0007813 265.9093  94.1033 12.80930317 83433
GAOFEN 12-2             
1 48079U 21026A   22247.31831286  .00000172  00000+0  29357-4 0  9997
2 48079  97.8989 236.7256 0001462  79.9491 280.1877 14.80202909 77296
PLEIADES NEO 3          
1 48268U 21034A   22247.33625973  .00000260  00000+0  39619-4 0  9992
2 48268  97.8934 320.9308 0001304  88.8872 271.2461 14.81676680 73037
NUSAT-19 (ROSALIND)     
1 48905U 21059AC  22247.48882392  .00004071  00000+0  19177-3 0  9993
2 48905  97.5184  16.8733 0010526 153.2531 269.6841 15.20046770 66071
NUSAT-22 (SOFYA)        
1 48919U 21059AS  22247.52861197  .00008282  00000+0  26411-3 0  9990
2 48919  97.3652  19.2273 0014955 113.3321 317.6875 15.32667888 66673
NUSAT-21 (ELISA)        
1 48920U 21059AT  22247.38660860  .00009670  00000+0  27676-3 0  9996
2 48920  97.3605  18.6612 0014177 122.6611 311.9684 15.36056773 66667
NUSAT-20 (GRACE)        
1 48921U 21059AU  22247.40126422  .00009242  00000+0  27684-3 0  9995
2 48921  97.3726  19.1395 0016591 141.1217 304.3708 15.34599207 66650
PLEIADES NEO 4          
1 49070U 21073E   22247.30248274  .00000332  00000+0  48832-4 0  9996
2 49070  97.8953 320.8951 0001356  84.2498 275.8847 14.81677209 56749
LANDSAT 9               
1 49260U 21088A   22247.42888649  .00000149  00000+0  43100-4 0  9991
2 49260  98.2219 316.6628 0001500  86.3199 273.8171 14.57113850 49780
CSG-2                   
1 51444U 22008A   22247.48200510  .00000108  00000+0  20152-4 0  9999
2 51444  97.8901  70.0102 0001466  83.9530 276.1868 14.82150759 31924
INS-2TD                 
1 51658U 22013C   22247.53843949  .00005372  00000+0  28914-3 0  9998
2 51658  97.5573 255.2046 0008622 283.3876  76.6395 15.15237133 30642
